1 47989U 21024N   21327.91667824 -.00021781  00000-0 -14476-2 0  9999
2 47989  53.0545  80.1248 0001648  53.6032 108.7923 15.06405311  3629
1 47989U 21024N   21328.25002315  .00032270  00000-0  21764-2 0  9996
2 47989  53.0546  78.6272 0001519  61.3842 109.7558 15.06382755 39193
1 47989U 21024N   21328.58334491 -.00012550  00000-0 -82502-3 0  9994
2 47989  53.0544  77.1326 0001657  55.3902 124.3639 15.06402506  3616
1 47989U 21024N   21328.91667824 -.00026496  00000-0 -17657-2 0  9992
2 47989  53.0541  75.6358 0001630  53.9453 134.4830 15.06416603 39298
1 47989U 21024N   21329.58334491 -.00025618  00000-0 -17064-2 0  9994
2 47989  53.0541  72.6435 0001664  54.0809 151.7261 15.06414744  3616
1 47989U 21024N   21329.83334491 -.00028851  00000-0 -19254-2 0  9997
2 47989  53.0539  71.5211 0001622  49.0596  73.2653 15.06407916  3609
1 47989U 21024N   21330.58335648  .00000951  00000-0  82736-4 0  9992
2 47989  53.0541  68.1542 0001661  50.2037 181.7000 15.06389318  3615
1 47989U 21024N   21330.91667824 -.00032704  00000-0 -21859-2 0  9993
2 47989  53.0542  66.6571 0001600  49.0749 191.4290 15.06413357  3610
1 47989U 21024N   21331.58334491 -.00002714  00000-0 -16344-3 0  9990
2 47989  53.0546  63.6649 0001821  50.8107 207.0657 15.06378323  3625
1 47989U 21024N   21331.91667824 -.00034121  00000-0 -22828-2 0  9996
2 47989  53.0547  62.1676 0001732  50.9267 215.5979 15.06399300  3617
1 47989U 21024N   21332.58334491  .00011399  00000-0  78326-3 0  9996
2 47989  53.0551  59.1757 0001850  50.3862 233.4751 15.06383717  3605
1 47989U 21024N   21332.91668981 -.00033125  00000-0 -22144-2 0  9996
2 47989  53.0551  57.6783 0001737  50.8101 241.7792 15.06413340  3593
1 47989U 21024N   21333.58334491 -.00007543  00000-0 -48792-3 0  9999
2 47989  53.0554  54.6866 0001805  49.2527 260.6511 15.06407974  3602
1 47989U 21024N   21333.91667824 -.00041833  00000-0 -28053-2 0  9992
2 47989  53.0553  53.1891 0001643  48.8738 269.7201 15.06409341  3608
1 47989U 21024N   21334.41667824 -.00024765  00000-0 -16491-2 0  9996
2 47989  53.0554  50.9452 0001645  49.8361 101.7662 15.06407687  3597
1 47989U 21024N   21334.66667824  .00023347  00000-0  15818-2 0  9998
2 47989  53.0552  49.8238 0001745  45.9033  22.2112 15.06382842 40164
1 47989U 21024N   21334.91667824 -.00058678  00000-0 -39523-2 0  9992
2 47989  53.0552  48.7002 0001690  50.5652 294.0512 15.06406229  3606
1 47989U 21024N   21335.25001157  .00000637  00000-0  61703-4 0  9998
2 47989  53.0553  47.2037 0001680  56.2098 297.0619 15.06381715 40249
1 47989U 21024N   21335.58334491  .00028087  00000-0  18989-2 0  9999
2 47989  53.0553  45.7091 0001853  49.6376 312.2947 15.06361976  3610
1 47989U 21024N   21335.91667824 -.00017215  00000-0 -11399-2 0  9996
2 47989  53.0551  44.2115 0001750  51.3289 319.2545 15.06389949  3596
1 47989U 21024N   21336.58334491  .00038209  00000-0  25716-2 0  9993
2 47989  53.0553  41.2204 0001918  48.7521 339.1786 15.06378364  3596
1 47989U 21024N   21336.91667824 -.00007731  00000-0 -50057-3 0  9994
2 47989  53.0553  39.7225 0001804  50.5552 346.0474 15.06405642  3579
1 47989U 21024N   21337.25001157 -.00055210  00000-0 -37135-2 0  9999
2 47989  53.0554  38.2262 0001784  52.3266 352.9516 15.06428515 40550
1 47989U 21024N   21337.58334491  .00043432  00000-0  29196-2 0  9994
2 47989  53.0555  36.7314 0001909  45.2400   8.7328 15.06363323  3597
1 47989U 21024N   21337.91667824 -.00000967  00000-0 -46062-4 0  9991
2 47989  53.0556  35.2335 0001781  47.9386  14.6901 15.06387882  3594
1 47989U 21024N   21338.25001157 -.00015723  00000-0 -10387-2 0  9995
2 47989  53.0557  33.7373 0001815  50.0690  21.2197 15.06408653  3615
1 47989U 21024N   21338.91667824  .00007742  00000-0  53809-3 0  9994
2 47989  53.0557  30.7444 0001803  47.7296  40.9269 15.06399622  3571
1 47989U 21024N   21339.58334491  .00047432  00000-0  31851-2 0  9991
2 47989  53.0555  27.7532 0001908  41.2951  64.7329 15.06361625  3603
1 47989U 21024N   21339.91667824  .00014736  00000-0  10067-2 0  9994
2 47989  53.0555  26.2551 0001724  45.4114  69.2766 15.06378786  3590
1 47989U 21024N   21340.25001157 -.00026095  00000-0 -17389-2 0  9991
2 47989  53.0555  24.7591 0001776  46.9959  76.3487 15.06409563 41002
1 47989U 21024N   21340.58335648  .00045488  00000-0  30553-2 0  9995
2 47989  53.0551  23.2639 0001922  41.2687  90.8224 15.06372483  3596
1 47989U 21024N   21340.91667824  .00021289  00000-0  14444-2 0  9990
2 47989  53.0550  21.7658 0001736  45.8801  94.8205 15.06383791  3609
1 47989U 21024N   21341.25001157 -.00029327  00000-0 -19571-2 0  9998
2 47989  53.0550  20.2700 0001812  47.1663 102.2000 15.06416821 41157
1 47989U 21024N   21341.58334491  .00041477  00000-0  27884-2 0  9998
2 47989  53.0546  18.7746 0001961  41.6817 116.3761 15.06381816  3590
1 47989U 21024N   21341.91667824  .00027184  00000-0  18374-2 0  9997
2 47989  53.0546  17.2764 0001791  46.2835 120.4581 15.06388304 41256
1 47989U 21024N   21342.00002315  .00041181  00000-0  27686-2 0  9995
2 47989  53.0545  16.9019 0001799  47.8194 211.1561 15.06384075  3577
1 47989U 21024N   21342.58334491 -.00008460  00000-0 -54972-3 0  9995
2 47989  53.0545  14.2852 0001990  40.3265 143.7855 15.06397677  3593
1 47989U 21024N   21342.91667824  .00032330  00000-0  21814-2 0  9990
2 47989  53.0546  12.7870 0001799  43.2910 149.5029 15.06365257  3599
1 47989U 21024N   21343.81003400 -.00000997  00000-0 -48017-4 0  9996
2 47989  53.0562   8.7768 0001939  47.0509 313.0642 15.06393365 42010
1 47989U 21024N   21344.47350117 -.00001019  00000-0 -49491-4 0  9992
2 47989  53.0561   5.7983 0001978  46.7698 313.3456 15.06396292 42112
1 47989U 21024N   21344.91667824  .00039968  00000-0  26886-2 0  9990
2 47989  53.0555   3.8087 0002010  44.0518 200.7501 15.06376467  3589
1 47989U 21024N   21345.00001157  .00038419  00000-0  25853-2 0  9995
2 47989  53.0556   3.4345 0002018  45.5869 291.3809 15.06382128 41711
1 47989U 21024N   21345.58334491  .00004394  00000-0  31368-3 0  9992
2 47989  53.0555   0.8177 0002232  40.3731 221.7803 15.06402689 41809
1 47989U 21024N   21345.91667824  .00042777  00000-0  28746-2 0  9990
2 47989  53.0556 359.3197 0002061  45.0752 225.7727 15.06382985  3598
1 47989U 21024N   21346.58334491 -.00045754  00000-0 -30702-2 0  9990
2 47989  53.0553 356.3286 0002217  40.3182 247.8961 15.06426534  3582
1 47989U 21024N   21346.91668981  .00037582  00000-0  25309-2 0  9996
2 47989  53.0553 354.8306 0002009  44.0012 252.9785 15.06364849  3570
1 47989U 21024N   21347.58334491 -.00015595  00000-0 -10304-2 0  9997
2 47989  53.0547 351.8397 0002217  40.0301 274.2013 15.06395375  3588
1 47989U 21024N   21347.91667824  .00044496  00000-0  29900-2 0  9995
2 47989  53.0546 350.3418 0002073  45.8164 277.0912 15.06366283  3591
1 47989U 21024N   21348.58334491 -.00021718  00000-0 -14433-2 0  9999
2 47989  53.0542 347.3505 0002294  41.2622 298.9705 15.06404121 42256
1 47989U 21024N   21348.91667824  .00043661  00000-0  29340-2 0  9997
2 47989  53.0542 345.8526 0002181  46.9294 301.9858 15.06373444  3595
1 47989U 21024N   21349.25001157 -.00019129  00000-0 -12685-2 0  9994
2 47989  53.0542 344.3578 0002383  44.3865 313.1978 15.06404222 42350
1 47989U 21024N   21349.59902778 -.00025853  00000-0 -17222-2 0  9993
2 47989  53.0542 342.7906 0002405  42.9449  48.4081 15.06414386  3592
1 47989U 21024N   21349.91668981  .00042646  00000-0  28657-2 0  9995
2 47989  53.0543 341.3632 0002314  47.8750 327.1382 15.06385433  3593
1 47989U 21024N   21350.58334491 -.00065127  00000-0 -43895-2 0  9998
2 47989  53.0544 338.3715 0002475  42.8561 349.4718 15.06431393  3592
1 47989U 21024N   21350.91668981  .00040416  00000-0  27182-2 0  9992
2 47989  53.0547 336.8737 0002342  47.2945 353.7906 15.06378085  3595
1 47989U 21024N   21351.08335648 -.00019151  00000-0 -12697-2 0  9991
2 47989  53.0549 336.1262 0002410  46.7323 178.6814 15.06411811 42638
1 47989U 21024N   21351.91667824  .00035016  00000-0  23599-2 0  9996
2 47989  53.0551 332.3844 0002329  47.1045  19.9520 15.06369249  3613
1 47989U 21024N   21352.25001157 -.00007212  00000-0 -46583-3 0  9993
2 47989  53.0551 330.8898 0002530  44.2857  31.4314 15.06388829 42818
1 47989U 21024N   21352.58334491 -.00029269  00000-0 -19536-2 0  9992
2 47989  53.0550 329.3927 0002483  44.2232  40.1530 15.06407053  3610
1 47989U 21024N   21352.91667824 -.00115522  00000-0 -78603-2 0  9996
2 47989  53.0549 327.8976 0002397  48.5862  44.4594 15.06412145  3597
1 47989U 21024N   21353.25001157 -.00001595  00000-0 -88152-4 0  9991
2 47989  53.0552 326.4007 0002563  46.1785  55.5584 15.06401853 42964
1 47989U 21024N   21353.58334491 -.00032672  00000-0 -21829-2 0  9993
2 47989  53.0549 324.9035 0002492  46.6050  63.8118 15.06425315  3595
1 47989U 21024N   21353.91667824 -.00013519  00000-0 -89012-3 0  9997
2 47989  53.0551 323.4062 0002367  50.7048  68.4104 15.06408826  3602
1 47989U 21024N   21354.58334491 -.00066005  00000-0 -44501-2 0  9993
2 47989  53.0547 320.4144 0002408  46.8508  89.6326 15.06426487  3602
1 47989U 21024N   21354.91668981  .00020202  00000-0  13715-2 0  9994
2 47989  53.0548 318.9172 0002326  50.8102  94.4256 15.06392458  3594
1 47989U 21024N   21355.58334491 -.00021814  00000-0 -14502-2 0  9991
2 47989  53.0547 315.9253 0002341  45.7934 116.7423 15.06393897  3595
1 47989U 21024N   21355.91667824 -.00035471  00000-0 -23742-2 0  9997
2 47989  53.0549 314.4284 0002276  49.1249 122.0709 15.06399314  3596
1 47989U 21024N   21356.58334491 -.00017374  00000-0 -11507-2 0  9990
2 47989  53.0549 311.4364 0002340  45.0918 143.3997 15.06385121 43468
1 47989U 21024N   21356.91667824  .00009906  00000-0  68319-3 0  9990
2 47989  53.0552 309.9398 0002346  49.2988 147.8428 15.06388956  3597
1 47989U 21024N   21357.25001157  .00039436  00000-0  26531-2 0  9999
2 47989  53.0552 308.4452 0002555  45.2631 160.5585 15.06378643 43564
1 47989U 21024N   21357.58334491 -.00029476  00000-0 -19667-2 0  9992
2 47989  53.0552 306.9475 0002405  47.0996 167.3970 15.06424776  3580
